[{"OBJECT_NAME":"STARLINK-4758","OBJECT_ID":"2022-114C","EPOCH":"2026-03-09T22:10:34.844160","MEAN_MOTION":15.08837521,"ECCENTRICITY":0.0001241,"INCLINATION":53.2172,"RA_OF_ASC_NODE":303.2911,"ARG_OF_PERICENTER":83.3214,"MEAN_ANOMALY":276.7919,"EPHEMERIS_TYPE":0,"CLASSIFICATION_TYPE":"U","NORAD_CAT_ID":53820,"ELEMENT_SET_NO":999,"REV_AT_EPOCH":19286,"BSTAR":-3.8139958e-5,"MEAN_MOTION_DOT":-8.95e-6,"MEAN_MOTION_DDOT":0},{"OBJECT_NAME":"OBJECT C","OBJECT_ID":"2025-292C","EPOCH":"2026-03-09T21:40:07.439232","MEAN_MOTION":15.0561637,"ECCENTRICITY":0.00142936,"INCLINATION":97.6364,"RA_OF_ASC_NODE":145.6037,"ARG_OF_PERICENTER":339.8589,"MEAN_ANOMALY":20.2072,"EPHEMERIS_TYPE":0,"CLASSIFICATION_TYPE":"U","NORAD_CAT_ID":66995,"ELEMENT_SET_NO":999,"REV_AT_EPOCH":1350,"BSTAR":0.00047642755,"MEAN_MOTION_DOT":6.828e-5,"MEAN_MOTION_DDOT":0}]
